{"type": "FeatureCollection", "features": [ {"type": "Feature", "properties": {"norad_id": 66705, "name": "FLOCK 4H-2", "group": "last-30-days", "lat": -8.168098816248067, "lon": -114.95474491181119, "alt_km": 515.0025720368694, "timestamp": "2025-12-20T11:30:27.104980+00:00", "meta": {"OBJECT_NAME": "FLOCK 4H-2", "OBJECT_ID": "2025-276AR", "EPOCH": "2025-12-20T04:21:13.535424", "MEAN_MOTION": 15.18098431, "ECCENTRICITY": 0.0001045, "INCLINATION": 97.4388, "RA_OF_ASC_NODE": 65.8268, "ARG_OF_PERICENTER": 165.2555, "MEAN_ANOMALY": 194.8709, "EPHEMERIS_TYPE": 0, "CLASSIFICATION_TYPE": "U", "NORAD_CAT_ID": 66705, "ELEMENT_SET_NO": 999, "REV_AT_EPOCH": 325, "BSTAR": 0.00032269, "MEAN_MOTION_DOT": 6.514e-05, "MEAN_MOTION_DDOT": 0}, "tle": {"line1": "1 66705U 25276AR  25354.18140666  .00006514  00000+0  32269-3 0  9997", "line2": "2 66705  97.4388  65.8268 0001045 165.2555 194.8709 15.18098431  3257"}}, "geometry": {"type": "Point", "coordinates": [-114.95474491181119, -8.168098816248067]}}, {"type": "Feature", "properties": {"norad_id": 66706, "name": "FLOCK 4H-3", "group": "last-30-days", "lat": 40.35103597916022, "lon": -107.50163746660306, "alt_km": 511.5069881213394, "timestamp": "2025-12-20T11:30:27.104989+00:00", "meta": {"OBJECT_NAME": "FLOCK 4H-3", "OBJECT_ID": "2025-276AS", "EPOCH": "2025-12-20T04:33:56.462112", "MEAN_MOTION": 15.17450644, "ECCENTRICITY": 0.0002801, "INCLINATION": 97.445, "RA_OF_ASC_NODE": 65.8354, "ARG_OF_PERICENTER": 263.5985, "MEAN_ANOMALY": 96.493, "EPHEMERIS_TYPE": 0, "CLASSIFICATION_TYPE": "U", "NORAD_CAT_ID": 66706, "ELEMENT_SET_NO": 999, "REV_AT_EPOCH": 325, "BSTAR": 0.00030133, "MEAN_MOTION_DOT": 5.966e-05, "MEAN_MOTION_DDOT": 0}, "tle": {"line1": "1 66706U 25276AS  25354.19023683  .00005966  00000+0  30133-3 0  9996", "line2": "2 66706  97.4450  65.8354 0002801 263.5985  96.4930 15.17450644  3254"}}, "geometry": {"type": "Point", "coordinates": [-107.50163746660306, 40.35103597916022]}}, {"type": "Feature", "properties": {"norad_id": 66707, "name": "FLOCK 4H-4", "group": "last-30-days", "lat": 59.06621788749415, "lon": -101.29033365197553, "alt_km": 510.59309763431065, "timestamp": "2025-12-20T11:30:27.104999+00:00", "meta": {"OBJECT_NAME": "FLOCK 4H-4", "OBJECT_ID": "2025-276AT", "EPOCH": "2025-12-20T03:03:55.706112", "MEAN_MOTION": 15.17177155, "ECCENTRICITY": 0.0003442, "INCLINATION": 97.4444, "RA_OF_ASC_NODE": 65.7616, "ARG_OF_PERICENTER": 264.756, "MEAN_ANOMALY": 95.3281, "EPHEMERIS_TYPE": 0, "CLASSIFICATION_TYPE": "U", "NORAD_CAT_ID": 66707, "ELEMENT_SET_NO": 999, "REV_AT_EPOCH": 324, "BSTAR": 0.00028886, "MEAN_MOTION_DOT": 5.671e-05, "MEAN_MOTION_DDOT": 0}, "tle": {"line1": "1 66707U 25276AT  25354.12772808  .00005671  00000+0  28886-3 0  9995", "line2": "2 66707  97.4444  65.7616 0003442 264.7560  95.3281 15.17177155  3241"}}, "geometry": {"type": "Point", "coordinates": [-101.29033365197553, 59.06621788749415]}}, {"type": "Feature", "properties": {"norad_id": 66708, "name": "FLOCK 4H-5", "group": "last-30-days", "lat": -14.365724392416418, "lon": -115.7923604814337, "alt_km": 516.0934246942334, "timestamp": "2025-12-20T11:30:27.105009+00:00", "meta": {"OBJECT_NAME": "FLOCK 4H-5", "OBJECT_ID": "2025-276AU", "EPOCH": "2025-12-20T04:19:35.563008", "MEAN_MOTION": 15.1813623, "ECCENTRICITY": 0.000122, "INCLINATION": 97.4403, "RA_OF_ASC_NODE": 65.8315, "ARG_OF_PERICENTER": 112.8536, "MEAN_ANOMALY": 247.2827, "EPHEMERIS_TYPE": 0, "CLASSIFICATION_TYPE": "U", "NORAD_CAT_ID": 66708, "ELEMENT_SET_NO": 999, "REV_AT_EPOCH": 325, "BSTAR": 0.00047866, "MEAN_MOTION_DOT": 9.709e-05, "MEAN_MOTION_DDOT": 0}, "tle": {"line1": "1 66708U 25276AU  25354.18027272  .00009709  00000+0  47866-3 0  9995", "line2": "2 66708  97.4403  65.8315 0001220 112.8536 247.2827 15.18136230  3257"}}, "geometry": {"type": "Point", "coordinates": [-115.7923604814337, -14.365724392416418]}}, {"type": "Feature", "properties": {"norad_id": 66709, "name": "FLOCK 4H-6", "group": "last-30-days", "lat": 3.304775298904058, "lon": -113.43230195296783, "alt_km": 513.6010940729238, "timestamp": "2025-12-20T11:30:27.105019+00:00", "meta": {"OBJECT_NAME": "FLOCK 4H-6", "OBJECT_ID": "2025-276AV", "EPOCH": "2025-12-20T04:24:12.231360", "MEAN_MOTION": 15.1788157, "ECCENTRICITY": 0.0002418, "INCLINATION": 97.4442, "RA_OF_ASC_NODE": 65.844, "ARG_OF_PERICENTER": 217.5997, "MEAN_ANOMALY": 142.5068, "EPHEMERIS_TYPE": 0, "CLASSIFICATION_TYPE": "U", "NORAD_CAT_ID": 66709, "ELEMENT_SET_NO": 999, "REV_AT_EPOCH": 325, "BSTAR": 0.00030801, "MEAN_MOTION_DOT": 6.176e-05, "MEAN_MOTION_DDOT": 0}, "tle": {"line1": "1 66709U 25276AV  25354.18347490  .00006176  00000+0  30801-3 0  9999", "line2": "2 66709  97.4442  65.8440 0002418 217.5997 142.5068 15.17881570  3251"}}, "geometry": {"type": "Point", "coordinates": [-113.43230195296783, 3.304775298904058]}}, {"type": "Feature", "properties": {"norad_id": 66710, "name": "FLOCK 4H-7", "group": "last-30-days", "lat": 39.97468787800668, "lon": -107.61092030828148, "alt_km": 511.29555683821764, "timestamp": "2025-12-20T11:30:27.105033+00:00", "meta": {"OBJECT_NAME": "FLOCK 4H-7", "OBJECT_ID": "2025-276AW", "EPOCH": "2025-12-20T04:33:49.662432", "MEAN_MOTION": 15.17358095, "ECCENTRICITY": 6.97e-05, "INCLINATION": 97.4395, "RA_OF_ASC_NODE": 65.8158, "ARG_OF_PERICENTER": 331.4229, "MEAN_ANOMALY": 28.6966, "EPHEMERIS_TYPE": 0, "CLASSIFICATION_TYPE": "U", "NORAD_CAT_ID": 66710, "ELEMENT_SET_NO": 999, "REV_AT_EPOCH": 325, "BSTAR": -0.00096692, "MEAN_MOTION_DOT": -0.000193, "MEAN_MOTION_DDOT": 0}, "tle": {"line1": "1 66710U 25276AW  25354.19015813 -.00019300  00000+0 -96692-3 0  9998", "line2": "2 66710  97.4395  65.8158 0000697 331.4229  28.6966 15.17358095  3259"}}, "geometry": {"type": "Point", "coordinates": [-107.61092030828148, 39.97468787800668]}}, {"type": "Feature", "properties": {"norad_id": 66711, "name": "FLOCK 4H-8", "group": "last-30-days", "lat": 40.74097817971223, "lon": -107.41448870323283, "alt_km": 511.7140801295209, "timestamp": "2025-12-20T11:30:27.105045+00:00", "meta": {"OBJECT_NAME": "FLOCK 4H-8", "OBJECT_ID": "2025-276AX", "EPOCH": "2025-12-20T04:34:03.074304", "MEAN_MOTION": 15.17451665, "ECCENTRICITY": 0.0002243, "INCLINATION": 97.4443, "RA_OF_ASC_NODE": 65.8344, "ARG_OF_PERICENTER": 289.4935, "MEAN_ANOMALY": 70.6056, "EPHEMERIS_TYPE": 0, "CLASSIFICATION_TYPE": "U", "NORAD_CAT_ID": 66711, "ELEMENT_SET_NO": 999, "REV_AT_EPOCH": 325, "BSTAR": 0.00034068, "MEAN_MOTION_DOT": 6.754e-05, "MEAN_MOTION_DDOT": 0}, "tle": {"line1": "1 66711U 25276AX  25354.19031336  .00006754  00000+0  34068-3 0  9993", "line2": "2 66711  97.4443  65.8344 0002243 289.4935  70.6056 15.17451665  3250"}}, "geometry": {"type": "Point", "coordinates": [-107.41448870323283, 40.74097817971223]}}, {"type": "Feature", "properties": {"norad_id": 66712, "name": "FLOCK 4H-9", "group": "last-30-days", "lat": 4.396519805375753, "lon": -113.29184481582097, "alt_km": 513.6338106407084, "timestamp": "2025-12-20T11:30:27.105055+00:00", "meta": {"OBJECT_NAME": "FLOCK 4H-9", "OBJECT_ID": "2025-276AY", "EPOCH": "2025-12-20T04:24:29.515680", "MEAN_MOTION": 15.17883301, "ECCENTRICITY": 0.0002551, "INCLINATION": 97.4429, "RA_OF_ASC_NODE": 65.8414, "ARG_OF_PERICENTER": 228.2593, "MEAN_ANOMALY": 131.8423, "EPHEMERIS_TYPE": 0, "CLASSIFICATION_TYPE": "U", "NORAD_CAT_ID": 66712, "ELEMENT_SET_NO": 999, "REV_AT_EPOCH": 325, "BSTAR": 0.00031392, "MEAN_MOTION_DOT": 6.296e-05, "MEAN_MOTION_DDOT": 0}, "tle": {"line1": "1 66712U 25276AY  25354.18367495  .00006296  00000+0  31392-3 0  9999", "line2": "2 66712  97.4429  65.8414 0002551 228.2593 131.8423 15.17883301  3250"}}, "geometry": {"type": "Point", "coordinates": [-113.29184481582097, 4.396519805375753]}}, {"type": "Feature", "properties": {"norad_id": 66713, "name": "FLOCK 4H-10", "group": "last-30-days", "lat": 56.19558732047104, "lon": -102.64347701427245, "alt_km": 510.61613672937165, "timestamp": "2025-12-20T11:30:27.105065+00:00", "meta": {"OBJECT_NAME": "FLOCK 4H-10", "OBJECT_ID": "2025-276AZ", "EPOCH": "2025-12-19T22:00:01.999584", "MEAN_MOTION": 15.17251401, "ECCENTRICITY": 0.00031511, "INCLINATION": 97.441, "RA_OF_ASC_NODE": 65.5475, "ARG_OF_PERICENTER": 267.493, "MEAN_ANOMALY": 23.499, "EPHEMERIS_TYPE": 0, "CLASSIFICATION_TYPE": "U", "NORAD_CAT_ID": 66713, "ELEMENT_SET_NO": 999, "REV_AT_EPOCH": 130, "BSTAR": -0.0011210777, "MEAN_MOTION_DOT": -0.00022293, "MEAN_MOTION_DDOT": 0}, "tle": {"line1": "1 66713U 25276AZ  25353.91668981 -.00022293  00000+0 -11211-2 0  9998", "line2": "2 66713  97.4410  65.5475 0003151 267.4930  23.4990 15.17251401  1301"}}, "geometry": {"type": "Point", "coordinates": [-102.64347701427245, 56.19558732047104]}}, {"type": "Feature", "properties": {"norad_id": 66714, "name": "FLOCK 4H-11", "group": "last-30-days", "lat": 32.2578229361344, "lon": -109.14959871818334, "alt_km": 511.7256626573135, "timestamp": "2025-12-20T11:30:27.105075+00:00", "meta": {"OBJECT_NAME": "FLOCK 4H-11", "OBJECT_ID": "2025-276BA", "EPOCH": "2025-12-20T04:31:52.190400", "MEAN_MOTION": 15.17740462, "ECCENTRICITY": 0.0001531, "INCLINATION": 97.4406, "RA_OF_ASC_NODE": 65.8334, "ARG_OF_PERICENTER": 295.5956, "MEAN_ANOMALY": 64.512, "EPHEMERIS_TYPE": 0, "CLASSIFICATION_TYPE": "U", "NORAD_CAT_ID": 66714, "ELEMENT_SET_NO": 999, "REV_AT_EPOCH": 325, "BSTAR": 0.00051993, "MEAN_MOTION_DOT": 0.00010433, "MEAN_MOTION_DDOT": 0}, "tle": {"line1": "1 66714U 25276BA  25354.18879850  .00010433  00000+0  51993-3 0  9991", "line2": "2 66714  97.4406  65.8334 0001531 295.5956  64.5120 15.17740462  3251"}}, "geometry": {"type": "Point", "coordinates": [-109.14959871818334, 32.2578229361344]}}]}